[{"OBJECT_NAME":"STARLINK-6073","OBJECT_ID":"2023-078AS","EPOCH":"2026-03-09T22:17:41.084736","MEAN_MOTION":14.99848742,"ECCENTRICITY":0.00116938,"INCLINATION":70.0028,"RA_OF_ASC_NODE":323.68,"ARG_OF_PERICENTER":295.6335,"MEAN_ANOMALY":64.3616,"EPHEMERIS_TYPE":0,"CLASSIFICATION_TYPE":"U","NORAD_CAT_ID":56807,"ELEMENT_SET_NO":999,"REV_AT_EPOCH":15321,"BSTAR":0.083955931,"MEAN_MOTION_DOT":0.01119436,"MEAN_MOTION_DDOT":0},{"OBJECT_NAME":"CZ-2D R\/B","OBJECT_ID":"2010-027B","EPOCH":"2026-03-09T19:01:31.304352","MEAN_MOTION":15.02332282,"ECCENTRICITY":0.00475082,"INCLINATION":97.9913,"RA_OF_ASC_NODE":95.0303,"ARG_OF_PERICENTER":252.3591,"MEAN_ANOMALY":107.2442,"EPHEMERIS_TYPE":0,"CLASSIFICATION_TYPE":"U","NORAD_CAT_ID":36597,"ELEMENT_SET_NO":999,"REV_AT_EPOCH":85595,"BSTAR":0.00022535675,"MEAN_MOTION_DOT":2.983e-5,"MEAN_MOTION_DDOT":0}]
